NORAD_CAT_ID,OBJECT_NAME,OBJECT_TYPE,EPOCH,MEAN_MOTION,ECCENTRICITY,INCLINATION,RA_OF_ASC_NODE,ARG_OF_PERICENTER,MEAN_ANOMALY,BSTAR,MEAN_MOTION_DOT,MEAN_MOTION_DDOT,TLE_LINE0,TLE_LINE1,TLE_LINE2,SEMIMAJOR_AXIS,PERIOD,APOGEE,PERIGEE,DECAYED
51853.0,STARLINK-3539,PAYLOAD,2024-03-09 03:00:25,15.08835054,0.0001685,53.2185,58.3624,97.8591,262.2592,3.2882e-05,2.35e-06,0.0,0 STARLINK-3539,1 51853U 22022B   24069.12529567  .00000235  00000-0  32882-4 0  9995,2 51853  53.2185  58.3624 0001685  97.8591 262.2592 15.08835054112679,6917.896,95.438,540.926,538.595,0.0
51853.0,STARLINK-3539,PAYLOAD,2024-03-09 06:11:11,15.08840491,0.0001509,53.2176,57.7687,81.9721,278.1442,6.5367e-05,7.53e-06,0.0,0 STARLINK-3539,1 51853U 22022B   24069.25777278  .00000753  00000-0  65367-4 0  9992,2 51853  53.2176  57.7687 0001509  81.9721 278.1442 15.08840491112698,6917.879,95.438,540.788,538.7,0.0
51853.0,STARLINK-3539,PAYLOAD,2024-03-10 06:01:58,15.08847508,0.000164,53.2186,53.3138,106.8819,253.2354,7.2137e-05,8.6e-06,0.0,0 STARLINK-3539,1 51853U 22022B   24070.25136853  .00000860  00000-0  72137-4 0  9994,2 51853  53.2186  53.3138 0001640 106.8819 253.2354 15.08847508112842,6917.857,95.437,540.857,538.588,0.0
51853.0,STARLINK-3539,PAYLOAD,2024-03-10 07:37:21,15.08848831,0.000163,53.2186,53.0157,104.9934,255.1239,9.0185e-05,1.148e-05,0.0,0 STARLINK-3539,1 51853U 22022B   24070.31760740  .00001148  00000-0  90185-4 0  9992,2 51853  53.2186  53.0157 0001630 104.9934 255.1239 15.08848831112850,6917.853,95.437,540.846,538.591,0.0
51853.0,STARLINK-3539,PAYLOAD,2024-03-10 15:34:17,15.08844747,0.0001551,53.2185,51.528,83.6583,276.4585,1.1957e-05,-9.8e-07,0.0,0 STARLINK-3539,1 51853U 22022B   24070.64881077 -.00000098  00000-0  11957-4 0  9999,2 51853  53.2185  51.5280 0001551  83.6583 276.4585 15.08844747112902,6917.866,95.437,540.804,538.658,0.0
51853.0,STARLINK-3539,PAYLOAD,2024-03-11 04:17:23,15.08833602,0.0001782,53.2198,49.151,90.9916,269.128,3.9757e-05,3.45e-06,0.0,0 STARLINK-3539,1 51853U 22022B   24071.17874124  .00000345  00000-0  39757-4 0  9995,2 51853  53.2198  49.1510 0001782  90.9916 269.1280 15.08833602112989,6917.9,95.438,540.998,538.532,0.0
51853.0,STARLINK-3539,PAYLOAD,2024-03-11 05:52:46,15.08834981,0.0001725,53.2196,48.8536,91.224,268.895,4.6724e-05,4.56e-06,0.0,0 STARLINK-3539,1 51853U 22022B   24071.24498005  .00000456  00000-0  46724-4 0  9998,2 51853  53.2196  48.8536 0001725  91.2240 268.8950 15.08834981112994,6917.896,95.438,540.954,538.567,0.0
51853.0,STARLINK-3539,PAYLOAD,2024-03-12 04:08:09,15.08845245,0.0001572,53.219,44.6889,91.299,268.8182,6.7316e-05,7.84e-06,0.0,0 STARLINK-3539,1 51853U 22022B   24072.17233469  .00000784  00000-0  67316-4 0  9996,2 51853  53.2190  44.6889 0001572  91.2990 268.8182 15.08845245113134,6917.864,95.437,540.817,538.642,0.0
51853.0,STARLINK-3539,PAYLOAD,2024-03-12 15:15:51,15.08841307,0.0001566,53.2181,42.6051,84.0842,276.0328,7.6765e-05,9.34e-06,0.0,0 STARLINK-3539,1 51853U 22022B   24072.63601528  .00000934  00000-0  76765-4 0  9997,2 51853  53.2181  42.6051 0001566  84.0842 276.0328 15.08841307113208,6917.876,95.437,540.825,538.658,0.0
51853.0,STARLINK-3539,PAYLOAD,2024-03-13 05:34:20,15.08839217,0.0001412,53.2175,39.9302,88.6039,271.5115,0.0001033,1.356e-05,0.0,0 STARLINK-3539,1 51853U 22022B   24073.23217758  .00001356  00000-0  10330-3 0  9996,2 51853  53.2175  39.9302 0001412  88.6039 271.5115 15.08839217113297,6917.883,95.438,540.725,538.771,0.0
51853.0,STARLINK-3539,PAYLOAD,2024-03-13 07:09:43,15.08840367,0.0001396,53.2176,39.6303,94.4799,265.6352,0.00010743,1.422e-05,0.0,0 STARLINK-3539,1 51853U 22022B   24073.29841664  .00001422  00000-0  10743-3 0  9993,2 51853  53.2176  39.6303 0001396  94.4799 265.6352 15.08840367113302,6917.879,95.438,540.71,538.779,0.0
51853.0,STARLINK-3539,PAYLOAD,2024-03-13 15:06:39,15.08836592,0.0001332,53.2168,38.1429,93.9419,266.1725,5.8089e-05,6.37e-06,0.0,0 STARLINK-3539,1 51853U 22022B   24073.62961955  .00000637  00000-0  58089-4 0  9999,2 51853  53.2168  38.1429 0001332  93.9419 266.1725 15.08836592113359,6917.891,95.438,540.677,538.834,0.0
51853.0,STARLINK-3539,PAYLOAD,2024-03-14 03:49:44,15.08838603,0.0001205,53.2166,35.7643,93.5167,266.5963,0.00016316,2.31e-05,0.0,0 STARLINK-3539,1 51853U 22022B   24074.15953979  .00002310  00000-0  16316-3 0  9991,2 51853  53.2166  35.7643 0001205  93.5167 266.5963 15.08838603113435,6917.885,95.438,540.583,538.916,0.0
51853.0,STARLINK-3539,PAYLOAD,2024-03-14 21:18:58,15.08838204,0.0001226,53.2168,32.4937,91.0071,269.1062,0.00014758,2.062e-05,0.0,0 STARLINK-3539,1 51853U 22022B   24074.88818112  .00002062  00000-0  14758-3 0  9992,2 51853  53.2168  32.4937 0001226  91.0071 269.1062 15.08838204113545,6917.886,95.438,540.599,538.903,0.0
51853.0,STARLINK-3539,PAYLOAD,2024-03-15 06:51:17,15.08844511,0.0001281,53.2169,30.7103,92.1922,267.9216,0.00029154,4.356e-05,0.0,0 STARLINK-3539,1 51853U 22022B   24075.28561821  .00004356  00000-0  29154-3 0  9993,2 51853  53.2169  30.7103 0001281  92.1922 267.9216 15.08844511113602,6917.867,95.437,540.618,538.845,0.0
51853.0,STARLINK-3539,PAYLOAD,2024-03-16 03:31:18,15.08840846,0.0001476,53.2187,26.8438,108.3958,251.7194,4.9699e-05,5.03e-06,0.0,0 STARLINK-3539,1 51853U 22022B   24076.14673909  .00000503  00000-0  49699-4 0  9997,2 51853  53.2187  26.8438 0001476 108.3958 251.7194 15.08840846113731,6917.878,95.438,540.764,538.722,0.0
51853.0,STARLINK-3539,PAYLOAD,2024-03-16 19:25:10,15.08830964,0.000161,53.22,23.8692,120.0017,240.1135,5.7228e-05,6.23e-06,0.0,0 STARLINK-3539,1 51853U 22022B   24076.80914681  .00000623  00000-0  57228-4 0  9995,2 51853  53.2200  23.8692 0001610 120.0017 240.1135 15.08830964113831,6917.908,95.438,540.887,538.659,0.0
51853.0,STARLINK-3539,PAYLOAD,2024-03-17 03:22:05,15.08839214,0.0001505,53.2201,22.3898,115.3336,244.7812,4.4618e-05,4.22e-06,0.0,0 STARLINK-3539,1 51853U 22022B   24077.14034193  .00000422  00000-0  44618-4 0  9990,2 51853  53.2201  22.3898 0001505 115.3336 244.7812 15.08839214113882,6917.883,95.438,540.789,538.707,0.0
51853.0,STARLINK-3539,PAYLOAD,2024-03-17 06:32:51,15.08844238,0.0001413,53.2194,21.7925,115.416,244.6979,6.8497e-05,8.02e-06,0.0,0 STARLINK-3539,1 51853U 22022B   24077.27281792  .00000802  00000-0  68497-4 0  9996,2 51853  53.2194  21.7925 0001413 115.4160 244.6979 15.08844238113909,6917.867,95.437,540.71,538.755,0.0
51853.0,STARLINK-3539,PAYLOAD,2024-03-18 06:23:38,15.08849626,0.0001129,53.2186,17.3298,106.8886,253.223,0.00012028,1.627e-05,0.0,0 STARLINK-3539,1 51853U 22022B   24078.26641304  .00001627  00000-0  12028-3 0  9999,2 51853  53.2186  17.3298 0001129 106.8886 253.2230 15.08849626114056,6917.851,95.437,540.497,538.935,0.0
51853.0,STARLINK-3539,PAYLOAD,2024-03-19 03:03:39,15.08848754,0.0001716,53.2189,13.4573,130.3611,229.7532,-4.4173e-05,-9.91e-06,0.0,0 STARLINK-3539,1 51853U 22022B   24079.12753806 -.00000991  00000-0 -44173-4 0  9998,2 51853  53.2189  13.4573 0001716 130.3611 229.7532 15.08848754114180,6917.854,95.437,540.906,538.532,0.0
51853.0,STARLINK-3539,PAYLOAD,2024-03-19 04:39:02,15.08851807,0.0001708,53.2192,13.16,129.9535,230.1607,-3.0066e-05,-7.67e-06,0.0,0 STARLINK-3539,1 51853U 22022B   24079.19377575 -.00000767  00000-0 -30066-4 0  9997,2 51853  53.2192  13.1600 0001708 129.9535 230.1607 15.08851807114195,6917.844,95.437,540.891,538.528,0.0
51853.0,STARLINK-3539,PAYLOAD,2024-03-20 04:29:48,15.0885782,0.0001275,53.2197,8.6978,87.7052,272.4086,0.00022178,3.245e-05,0.0,0 STARLINK-3539,1 51853U 22022B   24080.18736661  .00003245  00000-0  22178-3 0  9999,2 51853  53.2197   8.6978 0001275  87.7052 272.4086 15.08857820114349,6917.826,95.436,540.573,538.809,0.0
51853.0,STARLINK-3539,PAYLOAD,2024-03-21 01:09:50,15.08838957,0.0001248,53.2194,4.8405,96.7841,263.3293,1.5883e-05,-3.5e-07,0.0,0 STARLINK-3539,1 51853U 22022B   24081.04850430 -.00000035  00000-0  15883-4 0  9997,2 51853  53.2194   4.8405 0001248  96.7841 263.3293 15.08838957114478,6917.884,95.438,540.612,538.885,0.0
51853.0,STARLINK-3539,PAYLOAD,2024-03-21 12:17:32,15.08842695,0.0001399,53.2197,2.7586,98.0164,262.0987,5.4859e-05,5.85e-06,0.0,0 STARLINK-3539,1 51853U 22022B   24081.51218159  .00000585  00000-0  54859-4 0  9990,2 51853  53.2197   2.7586 0001399  98.0164 262.0987 15.08842695114546,6917.872,95.437,540.705,538.769,0.0
51853.0,STARLINK-3539,PAYLOAD,2024-03-21 21:49:50,15.08851973,0.0001406,53.2195,0.9747,117.5882,242.5253,-2.0003e-05,-6.06e-06,0.0,0 STARLINK-3539,1 51853U 22022B   24081.90961722 -.00000606  00000-0 -20003-4 0  9994,2 51853  53.2195   0.9747 0001406 117.5882 242.5253 15.08851973114601,6917.844,95.437,540.681,538.736,0.0
51853.0,STARLINK-3539,PAYLOAD,2024-03-22 01:00:37,15.08854051,0.0001444,53.2187,0.3788,94.6717,265.444,0.0001146,1.537e-05,0.0,0 STARLINK-3539,1 51853U 22022B   24082.04209543  .00001537  00000-0  11460-3 0  9994,2 51853  53.2187   0.3788 0001444  94.6717 265.4440 15.08854051114629,6917.837,95.437,540.701,538.704,0.0
51853.0,STARLINK-3539,PAYLOAD,2024-03-22 18:29:52,15.08837439,0.0001502,53.2188,357.1095,100.5421,259.574,9.6242e-05,1.244e-05,0.0,0 STARLINK-3539,1 51853U 22022B   24082.77074532  .00001244  00000-0  96242-4 0  9999,2 51853  53.2188 357.1095 0001502 100.5421 259.5740 15.08837439114738,6917.888,95.438,540.792,538.714,0.0
51853.0,STARLINK-3539,PAYLOAD,2024-03-22 21:40:38,15.08836273,0.000137,53.2196,356.5141,103.6361,256.4783,8.6411e-05,1.087e-05,0.0,0 STARLINK-3539,1 51853U 22022B   24082.90322612  .00001087  00000-0  86411-4 0  9991,2 51853  53.2196 356.5141 0001370 103.6361 256.4783 15.08836273114752,6917.892,95.438,540.705,538.809,0.0
51853.0,STARLINK-3539,PAYLOAD,2024-03-23 04:02:10,15.08863521,0.0001528,53.2186,355.3233,111.7771,248.3384,0.00054749,8.442e-05,0.0,0 STARLINK-3539,1 51853U 22022B   24083.16817236  .00008442  00000-0  54749-3 0  9991,2 51853  53.2186 355.3233 0001528 111.7771 248.3384 15.08863521114797,6917.808,95.436,540.731,538.616,0.0
